{
  "type": "FeatureCollection",
  "features": [
    {
      "type": "Feature",
      "properties": {
        "norad_id": 66813,
        "name": "STARLINK-36042",
        "group": "last-30-days",
        "lat": 42.92573788942808,
        "lon": -66.53525490802122,
        "alt_km": 370.5795321763262,
        "timestamp": "2025-12-20T03:42:46.120805+00:00",
        "meta_object_name": "STARLINK-36042",
        "meta_object_id": "2025-278Y",
        "meta_epoch": "2025-12-19T20:00:01.999008",
        "meta_mean_motion": 15.65348397,
        "meta_eccentricity": 0.0001382,
        "meta_inclination": 42.999,
        "meta_ra_of_asc_node": 208.8597,
        "meta_arg_of_pericenter": 271.2647,
        "meta_mean_anomaly": 163.9674,
        "meta_ephemeris_type": 0,
        "meta_classification_type": "U",
        "meta_norad_cat_id": 66813,
        "meta_element_set_no": 999,
        "meta_rev_at_epoch": 409,
        "meta_bstar": -0.022094,
        "meta_mean_motion_dot": -0.01992107,
        "meta_mean_motion_ddot": 0,
        "tle_line1": "1 66813U 25278Y   25353.83335647 -.01992107  00000+0 -22094-1 0  9993",
        "tle_line2": "2 66813  42.9990 208.8597 0001382 271.2647 163.9674 15.65348397  4091"
      },
      "geometry": {
        "type": "Point",
        "coordinates": [
          -66.53525490802122,
          42.92573788942808
        ]
      }
    },
    {
      "type": "Feature",
      "properties": {
        "norad_id": 66814,
        "name": "STARLINK-35984",
        "group": "last-30-days",
        "lat": 42.32856955006252,
        "lon": -50.915709000257486,
        "alt_km": 370.7313172283275,
        "timestamp": "2025-12-20T03:42:46.120815+00:00",
        "meta_object_name": "STARLINK-35984",
        "meta_object_id": "2025-278Z",
        "meta_epoch": "2025-12-19T20:00:01.999008",
        "meta_mean_motion": 15.6536229,
        "meta_eccentricity": 0.0001466,
        "meta_inclination": 42.9987,
        "meta_ra_of_asc_node": 208.8299,
        "meta_arg_of_pericenter": 268.5434,
        "meta_mean_anomaly": 178.1846,
        "meta_ephemeris_type": 0,
        "meta_classification_type": "U",
        "meta_norad_cat_id": 66814,
        "meta_element_set_no": 999,
        "meta_rev_at_epoch": 418,
        "meta_bstar": -0.022349,
        "meta_mean_motion_dot": -0.02013394,
        "meta_mean_motion_ddot": 0,
        "tle_line1": "1 66814U 25278Z   25353.83335647 -.02013394  00000+0 -22349-1 0  9990",
        "tle_line2": "2 66814  42.9987 208.8299 0001466 268.5434 178.1846 15.65362290  4180"
      },
      "geometry": {
        "type": "Point",
        "coordinates": [
          -50.915709000257486,
          42.32856955006252
        ]
      }
    },
    {
      "type": "Feature",
      "properties": {
        "norad_id": 66815,
        "name": "STARLINK-35985",
        "group": "last-30-days",
        "lat": 42.575460229549314,
        "lon": -53.48823705594431,
        "alt_km": 370.59580164275394,
        "timestamp": "2025-12-20T03:42:46.120825+00:00",
        "meta_object_name": "STARLINK-35985",
        "meta_object_id": "2025-278AA",
        "meta_epoch": "2025-12-19T20:00:01.999008",
        "meta_mean_motion": 15.6535809,
        "meta_eccentricity": 0.0001305,
        "meta_inclination": 42.9987,
        "meta_ra_of_asc_node": 208.8347,
        "meta_arg_of_pericenter": 270.7668,
        "meta_mean_anomaly": 174.0477,
        "meta_ephemeris_type": 0,
        "meta_classification_type": "U",
        "meta_norad_cat_id": 66815,
        "meta_element_set_no": 999,
        "meta_rev_at_epoch": 418,
        "meta_bstar": -0.022304,
        "meta_mean_motion_dot": -0.02009401,
        "meta_mean_motion_ddot": 0,
        "tle_line1": "1 66815U 25278AA  25353.83335647 -.02009401  00000+0 -22304-1 0  9996",
        "tle_line2": "2 66815  42.9987 208.8347 0001305 270.7668 174.0477 15.65358090  4189"
      },
      "geometry": {
        "type": "Point",
        "coordinates": [
          -53.48823705594431,
          42.575460229549314
        ]
      }
    },
    {
      "type": "Feature",
      "properties": {
        "norad_id": 66816,
        "name": "STARLINK-36098",
        "group": "last-30-days",
        "lat": 42.97451588422219,
        "lon": -63.92369022231008,
        "alt_km": 370.55773421247795,
        "timestamp": "2025-12-20T03:42:46.120858+00:00",
        "meta_object_name": "STARLINK-36098",
        "meta_object_id": "2025-278AB",
        "meta_epoch": "2025-12-19T20:00:01.999008",
        "meta_mean_motion": 15.65353849,
        "meta_eccentricity": 0.0001349,
        "meta_inclination": 42.9984,
        "meta_ra_of_asc_node": 208.8546,
        "meta_arg_of_pericenter": 268.7153,
        "meta_mean_anomaly": 168.4289,
        "meta_ephemeris_type": 0,
        "meta_classification_type": "U",
        "meta_norad_cat_id": 66816,
        "meta_element_set_no": 999,
        "meta_rev_at_epoch": 394,
        "meta_bstar": -0.022191,
        "meta_mean_motion_dot": -0.02000201,
        "meta_mean_motion_ddot": 0,
        "tle_line1": "1 66816U 25278AB  25353.83335647 -.02000201  00000+0 -22191-1 0  9990",
        "tle_line2": "2 66816  42.9984 208.8546 0001349 268.7153 168.4289 15.65353849  3940"
      },
      "geometry": {
        "type": "Point",
        "coordinates": [
          -63.92369022231008,
          42.97451588422219
        ]
      }
    },
    {
      "type": "Feature",
      "properties": {
        "norad_id": 66817,
        "name": "STARLINK-35995",
        "group": "last-30-days",
        "lat": 42.894562936170416,
        "lon": -58.6879981009033,
        "alt_km": 370.6146343659575,
        "timestamp": "2025-12-20T03:42:46.120869+00:00",
        "meta_object_name": "STARLINK-35995",
        "meta_object_id": "2025-278AC",
        "meta_epoch": "2025-12-19T20:00:01.999008",
        "meta_mean_motion": 15.65355382,
        "meta_eccentricity": 0.000141,
        "meta_inclination": 42.9991,
        "meta_ra_of_asc_node": 208.8446,
        "meta_arg_of_pericenter": 267.9229,
        "meta_mean_anomaly": 173.0583,
        "meta_ephemeris_type": 0,
        "meta_classification_type": "U",
        "meta_norad_cat_id": 66817,
        "meta_element_set_no": 999,
        "meta_rev_at_epoch": 409,
        "meta_bstar": -0.022237,
        "meta_mean_motion_dot": -0.02003956,
        "meta_mean_motion_ddot": 0,
        "tle_line1": "1 66817U 25278AC  25353.83335647 -.02003956  00000+0 -22237-1 0  9992",
        "tle_line2": "2 66817  42.9991 208.8446 0001410 267.9229 173.0583 15.65355382  4092"
      },
      "geometry": {
        "type": "Point",
        "coordinates": [
          -58.6879981009033,
          42.894562936170416
        ]
      }
    },
    {
      "type": "Feature",
      "properties": {
        "norad_id": 66818,
        "name": "STARLINK-35994",
        "group": "last-30-days",
        "lat": 42.964462138675884,
        "lon": -61.30500236754491,
        "alt_km": 370.5989596646177,
        "timestamp": "2025-12-20T03:42:46.120879+00:00",
        "meta_object_name": "STARLINK-35994",
        "meta_object_id": "2025-278AD",
        "meta_epoch": "2025-12-19T20:00:01.999008",
        "meta_mean_motion": 15.65357121,
        "meta_eccentricity": 0.0001408,
        "meta_inclination": 42.9987,
        "meta_ra_of_asc_node": 208.8502,
        "meta_arg_of_pericenter": 264.8888,
        "meta_mean_anomaly": 174.173,
        "meta_ephemeris_type": 0,
        "meta_classification_type": "U",
        "meta_norad_cat_id": 66818,
        "meta_element_set_no": 999,
        "meta_rev_at_epoch": 409,
        "meta_bstar": -0.02226,
        "meta_mean_motion_dot": -0.02005878,
        "meta_mean_motion_ddot": 0,
        "tle_line1": "1 66818U 25278AD  25353.83335647 -.02005878  00000+0 -22260-1 0  9994",
        "tle_line2": "2 66818  42.9987 208.8502 0001408 264.8888 174.1730 15.65357121  4094"
      },
      "geometry": {
        "type": "Point",
        "coordinates": [
          -61.30500236754491,
          42.964462138675884
        ]
      }
    },
    {
      "type": "Feature",
      "properties": {
        "norad_id": 66819,
        "name": "STARLINK-35989",
        "group": "last-30-days",
        "lat": 42.764552311707014,
        "lon": -56.084511681266406,
        "alt_km": 370.60620531135737,
        "timestamp": "2025-12-20T03:42:46.120888+00:00",
        "meta_object_name": "STARLINK-35989",
        "meta_object_id": "2025-278AE",
        "meta_epoch": "2025-12-19T20:00:01.999008",
        "meta_mean_motion": 15.65357744,
        "meta_eccentricity": 0.0001378,
        "meta_inclination": 42.9987,
        "meta_ra_of_asc_node": 208.8401,
        "meta_arg_of_pericenter": 267.3303,
        "meta_mean_anomaly": 175.5643,
        "meta_ephemeris_type": 0,
        "meta_classification_type": "U",
        "meta_norad_cat_id": 66819,
        "meta_element_set_no": 999,
        "meta_rev_at_epoch": 409,
        "meta_bstar": -0.022263,
        "meta_mean_motion_dot": -0.02006131,
        "meta_mean_motion_ddot": 0,
        "tle_line1": "1 66819U 25278AE  25353.83335647 -.02006131  00000+0 -22263-1 0  9991",
        "tle_line2": "2 66819  42.9987 208.8401 0001378 267.3303 175.5643 15.65357744  4098"
      },
      "geometry": {
        "type": "Point",
        "coordinates": [
          -56.084511681266406,
          42.764552311707014
        ]
      }
    }
  ]
}